STARLINK-35440          
1 66345U 25253AC  25331.25002315 -.00020556  00000+0 -34565-3 0  9998
2 66345  42.9998  75.2068 0001740 284.1765 285.3137 15.50563829  4434
STARLINK-35482          
1 66346U 25253AD  25331.25002315  .00093587  00000+0  15873-2 0  9991
2 66346  42.9997  75.2029 0001341 278.5189 292.9454 15.50486223  4534
STARLINK-35438          
1 66347U 25253AE  25331.25002315  .00089404  00000+0  15163-2 0  9997
2 66347  42.9996  75.1934 0001844 276.0516 299.2077 15.50505846  4436
STARLINK-35849          
1 66348U 25254A   25331.26085994  .00191808  00000+0  12813-2 0  9995
2 66348  53.1591 351.7932 0001276  79.0173 281.0990 15.74243389  4409
STARLINK-35848          
1 66349U 25254B   25331.26052261  .00166330  00000+0  11158-2 0  9990
2 66349  53.1593 351.7907 0001172  87.5882 272.5273 15.74229259  3240
STARLINK-35829          
1 66350U 25254C   25331.26018259  .00131235  00000+0  88473-3 0  9992
2 66350  53.1592 351.7880 0001187 107.0884 253.0266 15.74234416  3244
STARLINK-35828          
1 66351U 25254D   25331.25984190  .00233649  00000+0  15500-2 0  9990
2 66351  53.1591 351.7857 0001009  90.4368 269.6767 15.74274791  3242
STARLINK-35850          
1 66352U 25254E   25331.25950682  .00142294  00000+0  95757-3 0  9998
2 66352  53.1593 351.7830 0001125  83.6652 276.4496 15.74236804  3243
STARLINK-35869          
1 66353U 25254F   25331.25916855  .00241642  00000+0  16017-2 0  9991
2 66353  53.1588 351.7803 0001118 102.8596 257.2549 15.74270886  3245
STARLINK-35895          
1 66354U 25254G   25331.25883161  .00197023  00000+0  13147-2 0  9999
2 66354  53.1589 351.7775 0001256 104.5403 255.5756 15.74253521  3242
STARLINK-35861          
1 66355U 25254H   25331.25849317  .00247433  00000+0  16400-2 0  9991
2 66355  53.1590 351.7760 0001308 100.5796 259.5372 15.74254394  3245
STARLINK-35851          
1 66356U 25254J   25331.25815477  .00153491  00000+0  10317-2 0  9993
2 66356  53.1591 351.7727 0001087  91.8615 268.2529 15.74224622  3248
STARLINK-35817          
1 66357U 25254K   25331.25781743  .00198715  00000+0  13271-2 0  9992
2 66357  53.1590 351.7700 0001289  94.6080 265.5088 15.74227389  3243
STARLINK-35807          
1 66358U 25254L   25331.25747897  .00174042  00000+0  11657-2 0  9998
2 66358  53.1590 351.7683 0001141  85.7642 274.3508 15.74239196  3240
STARLINK-35805          
1 66359U 25254M   25331.25714054  .00138021  00000+0  92950-3 0  9991
2 66359  53.1589 351.7662 0001269  79.2525 280.8637 15.74234446  4389
STARLINK-35823          
1 66360U 25254N   25331.25646546  .00167971  00000+0  11261-2 0  9994
2 66360  53.1588 351.7608 0001079  87.9866 272.1277 15.74237532  3240
STARLINK-35813          
1 66361U 25254P   25331.25680396  .00157719  00000+0  10593-2 0  9992
2 66361  53.1589 351.7637 0001456  88.5548 271.5639 15.74228682  3248
STARLINK-35822          
1 66362U 25254Q   25331.25578820  .00132832  00000+0  89550-3 0  9990
2 66362  53.1588 351.7570 0001142  97.2118 262.9032 15.74228520  3248
STARLINK-35806          
1 66363U 25254R   25331.25612693  .00144766  00000+0  97397-3 0  9995
2 66363  53.1589 351.7585 0001166  85.4119 274.7034 15.74233603  3243
STARLINK-35797          
1 66364U 25254S   25331.25545134  .00131526  00000+0  88724-3 0  9995
2 66364  53.1588 351.7538 0001503  85.5713 274.5479 15.74218751  3245
STARLINK-35827          
1 66365U 25254T   25331.25477481  .00144306  00000+0  97106-3 0  9999
2 66365  53.1586 351.7501 0001119  92.4370 267.6778 15.74230892  3248
STARLINK-35845          
1 66366U 25254U   25331.25511306  .00180453  00000+0  12074-2 0  9998
2 66366  53.1587 351.7517 0001245  89.5247 270.5916 15.74242916  3244
STARLINK-35846          
1 66367U 25254V   25331.25443754  .00199298  00000+0  13300-2 0  9990
2 66367  53.1586 351.7470 0001346  79.2368 280.8803 15.74243753  3243
STARLINK-34861          
1 66368U 25254W   25331.25375946  .00246229  00000+0  16315-2 0  9994
2 66368  53.1583 351.7414 0001571 109.8007 250.3182 15.74264695  3249
STARLINK-35795          
1 66369U 25254X   25331.25409761  .00141547  00000+0  95277-3 0  9990
2 66369  53.1585 351.7436 0000877  94.0645 266.0475 15.74233816  3247
STARLINK-35824          
1 66370U 25254Y   25331.31690978  .00158852  00000+0  10660-2 0  9990
2 66370  53.1585 351.4249 0001074  73.9838 286.1300 15.74244286  3252
STARLINK-35804          
1 66371U 25254Z   25331.31622837  .00269827  00000+0  17824-2 0  9994
2 66371  53.1582 351.4197 0001191 135.4023 224.7093 15.74264823  3258
STARLINK-35821          
1 66372U 25254AA  25331.31657019  .00118306  00000+0  79903-3 0  9997
2 66372  53.1586 351.4229 0001166 120.0629 240.0507 15.74239755  3250
STARLINK-35809          
1 66373U 25254AB  25331.31589643  .00161983  00000+0  10868-2 0  9998
2 66373  53.1584 351.4173 0001145  78.5056 281.6093 15.74238513  3257
STARLINK-35831          
1 66374U 25254AC  25331.31555406  .00099402  00000+0  67513-3 0  9995
2 66374  53.1583 351.4152 0000325  28.2766 331.8271 15.74185280  3251
STARLINK-35826          
1 66375U 25254AD  25331.31522245  .00116884  00000+0  79035-3 0  9997
2 66375  53.1586 351.4130 0001403  77.1157 283.0020 15.74217729  3250
SHIYAN-32 01            
1 66376U 25255A   25331.72041613  .00021716  00000+0  50814-3 0  9992
2 66376  52.9965 249.4335 0013211 355.3010   4.7868 15.42012582  3030
CZ-11 DEB               
1 66377U 25255B   25331.25932698  .00040781  00000+0  91271-3 0  9998
2 66377  52.9964 251.5410 0014019 351.5995   8.4773 15.42992020  2821
SHIYAN-32 02            
1 66378U 25255C   25331.70927949  .00056057  00000+0  12329-2 0  9991
2 66378  52.9981 249.3663 0013207 357.3260   2.7671 15.43380496  2893
SHIYAN-32 03            
1 66379U 25255D   25331.71604919  .00022510  00000+0  51958-3 0  9991
2 66379  52.9970 249.4072 0015229 356.2547   3.8340 15.42370427  2919
STARLINK-35139          
1 66380U 25257A   25331.25002315 -.02013108  00000+0 -29400-1 0  9998
2 66380  53.1597 337.9888 0001281  72.3808  53.3142 15.58616057  3949
STARLINK-35158          
1 66381U 25257B   25331.25002315 -.01991772  00000+0 -29053-1 0  9994
2 66381  53.1600 337.9844 0001442  70.9410  56.6711 15.58606358  4008
STARLINK-35639          
1 66382U 25257C   25331.25002315 -.02015852  00000+0 -29444-1 0  9996
2 66382  53.1597 337.9790 0001357  75.7680  53.7608 15.58617498  4001
STARLINK-35690          
1 66383U 25257D   25331.25002315 -.02008362  00000+0 -29322-1 0  9990
2 66383  53.1599 337.9715 0001460  73.4981  59.8635 15.58613292  4000
STARLINK-35662          
1 66384U 25257E   25331.25002315 -.02010674  00000+0 -29359-1 0  9990
2 66384  53.1601 337.9686 0001514  71.8520  63.4264 15.58614510  4006
STARLINK-35659          
1 66385U 25257F   25331.25002315 -.02008788  00000+0 -29329-1 0  9991
2 66385  53.1598 337.9761 0001507  72.4789  58.9662 15.58613125  4004
STARLINK-35651          
1 66386U 25257G   25331.25002315 -.02008737  00000+0 -29327-1 0  9994
2 66386  53.1597 337.9641 0001450  75.1506  62.0453 15.58614409  4005
STARLINK-35661          
1 66387U 25257H   25331.25002315 -.01984019  00000+0 -28930-1 0  9999
2 66387  53.1597 337.9606 0001418  70.8900  68.2251 15.58601884  4008
STARLINK-35647          
1 66388U 25257J   25331.25002315 -.02006280  00000+0 -29287-1 0  9992
2 66388  53.1599 337.9554 0001527  73.1164  67.9134 15.58613083  4002
STARLINK-35694          
1 66389U 25257K   25331.25002315 -.02007557  00000+0 -29307-1 0  9994
2 66389  53.1598 337.9517 0001555  73.4629  69.4827 15.58613877  4008
STARLINK-35665          
1 66390U 25257L   25331.25002315 -.01988232  00000+0 -28994-1 0  9994
2 66390  53.1596 337.8804 0001556  75.3166 102.1321 15.58605162  4107
STARLINK-35656          
1 66391U 25257M   25331.25002315 -.02200956  00000+0 -35591-1 0  9997
2 66391  53.1593 337.6072 0001254  89.4889 219.4749 15.55651414  4107
STARLINK-35671          
1 66392U 25257N   25331.25002315 -.01987427  00000+0 -28982-1 0  9998
2 66392  53.1600 337.9440 0001528  72.4223  74.3581 15.58604395  4007
STARLINK-35652          
1 66393U 25257P   25331.25002315 -.02002245  00000+0 -29221-1 0  9993
2 66393  53.1596 337.9485 0001567  73.1963  71.6659 15.58610860  4003
STARLINK-35672          
1 66394U 25257Q   25331.25002315 -.02012337  00000+0 -29383-1 0  9996
2 66394  53.1599 337.9394 0001494  73.0915  75.6029 15.58617361  4009
STARLINK-35681          
1 66395U 25257R   25331.25002315 -.02008173  00000+0 -29319-1 0  9999
2 66395  53.1598 337.9362 0001416  74.8622  75.7530 15.58613363  3849
STARLINK-35669          
1 66396U 25257S   25331.25002315 -.02008305  00000+0 -29321-1 0  9990
2 66396  53.1599 337.9318 0001404  76.1723  76.3585 15.58614163  4001
STARLINK-35510          
1 66397U 25257T   25331.25002315 -.01985716  00000+0 -28956-1 0  9993
2 66397  53.1601 337.9275 0001456  72.3194  82.1290 15.58603431  4009
STARLINK-35642          
1 66398U 25257U   25331.25002315 -.02008164  00000+0 -29319-1 0  9992
2 66398  53.1596 337.9234 0001422  73.5109  82.8542 15.58613667  4009
STARLINK-35657          
1 66399U 25257V   25331.25002315 -.01989214  00000+0 -29013-1 0  9997
2 66399  53.1597 337.9201 0001511  73.8538  84.4306 15.58603327  4001
STARLINK-35667          
1 66400U 25257W   25331.25002315 -.01991266  00000+0 -29044-1 0  9994
2 66400  53.1597 337.9116 0001528  73.4900  88.6247 15.58606349  4003
STARLINK-35668          
1 66401U 25257X   25331.25002315 -.01987318  00000+0 -28981-1 0  9997
2 66401  53.1598 337.9080 0001569  73.7048  90.3278 15.58603440  4009
STARLINK-35644          
1 66402U 25257Y   25331.25002315 -.01992379  00000+0 -29064-1 0  9994
2 66402  53.1598 337.9156 0001420  72.6234  87.5755 15.58606591  4003
STARLINK-35602          
1 66403U 25257Z   25331.25002315 -.01976531  00000+0 -28817-1 0  9992
2 66403  53.1597 337.9040 0001094  78.5407  87.4148 15.58594885  4006
